IRIDIUM 36              
1 24967U 97056C   24225.46129346  .00001359  00000+0  45270-3 0  9993
2 24967  86.3974 302.6710 0002050  92.2585 267.8847 14.36944650407874
IRIDIUM 39              
1 25042U 97069D   24225.60310483  .00004537  00000+0  12108-2 0  9996
2 25042  86.3961 343.4064 0016194 254.4756 105.4660 14.48165254404286
IRIDIUM 38              
1 25043U 97069E   24225.45125577  .00002594  00000+0  86204-3 0  9998
2 25043  86.3997   3.0182 0003420  64.3355 295.8196 14.37404279401597
IRIDIUM 42              
1 25077U 97077A   24225.64064291  .00002242  00000+0  77015-3 0  9990
2 25077  86.3995   8.7242 0002611  81.9293 278.2200 14.35690207396914
IRIDIUM 44              
1 25078U 97077B   24225.58945571  .00002328  00000+0  74030-3 0  9992
2 25078  86.3999 351.5082 0001674  35.8628 324.2683 14.39540252399297
IRIDIUM 45              
1 25104U 97082A   24225.43094368  .00044759  00000+0  23636-2 0  9990
2 25104  86.3755 195.8181 0154752  35.8422 325.3077 15.05492549405313
IRIDIUM 24              
1 25105U 97082B   24225.53843341  .00002641  00000+0  81003-3 0  9992
2 25105  86.3919 211.0183 0012469  28.0110 332.1758 14.41331914398742
IRIDIUM 51              
1 25262U 98018A   24225.41141178  .00044393  00000+0  19204-2 0  9995
2 25262  86.3965 205.4568 0135369 336.5236  22.9858 15.14257606399913
